0 METEOR 2-1
1 08026U 75064A   13282.81604226  .00000228  00000-0  12180-3 0  5514
2 08026 081.2811 197.6122 0022736 035.6372 017.0297 14.10052674966516
0 METEOR 2-1
1 08026U 75064A   13284.18771638  .00000230  00000-0  12314-3 0  5521
2 08026 081.2812 196.2828 0022689 031.9043 139.7553 14.10053233966706
0 METEOR 2-1
1 08026U 75064A   13285.38739102  .00000216  00000-0  11505-3 0  5530
2 08026 081.2813 195.1200 0022615 028.5608 109.4792 14.10053772966872
0 METEOR 2-1
1 08026U 75064A   13286.86335608  .00000216  00000-0  11493-3 0  5544
2 08026 081.2814 193.6897 0022554 024.4476 041.6964 14.10054327967087
0 METEOR 2-1
1 08026U 75064A   13288.08278510  .00000226  00000-0  12049-3 0  5558
2 08026 081.2813 192.5079 0022497 020.9569 111.7935 14.10054961967256
0 METEOR 2-1
1 08026U 75064A   13289.14984038  .00000191  00000-0  10084-3 0  5564
2 08026 081.2811 191.4739 0022439 017.8676 128.4429 14.10055448967406
0 METEOR 2-1
1 08026U 75064A   13290.35423183  .00000169  00000-0  88438-4 0  5573
2 08026 081.2809 190.3068 0022388 014.3682 122.2616 14.10056151967578
0 METEOR 2-1
1 08026U 75064A   13292.19354547  .00000127  00000-0  64756-4 0  5586
2 08026 081.2807 188.5244 0022320 009.0355 099.1111 14.10057031967834
0 METEOR 2-1
1 08026U 75064A   13293.19792476  .00000104  00000-0  51675-4 0  5596
2 08026 081.2806 187.5510 0022283 006.1083 157.6275 14.10057500967979
0 METEOR 2-1
1 08026U 75064A   13294.32802221  .00000075  00000-0  35384-4 0  5600
2 08026 081.2806 186.4558 0022250 002.8082 134.3334 14.10057980968134
0 METEOR 2-1
1 08026U 75064A   13295.80386170  .00000052  00000-0  22250-4 0  5618
2 08026 081.2805 185.0255 0022205 358.3129 066.3160 14.10058395968348
